{
  "type": "FeatureCollection",
  "features": [
    {
      "type": "Feature",
      "properties": {
        "norad_id": 39227,
        "name": "ARIRANG-5 (KOMPSAT-5)",
        "group": "resource",
        "lat": -64.20256916877747,
        "lon": -17.635085093356167,
        "alt_km": 562.2509944293652,
        "timestamp": "2025-12-20T05:41:49.675208+00:00",
        "meta_object_name": "ARIRANG-5 (KOMPSAT-5)",
        "meta_object_id": "2013-042A",
        "meta_epoch": "2025-12-19T22:13:32.612160",
        "meta_mean_motion": 15.04538009,
        "meta_eccentricity": 0.00034536,
        "meta_inclination": 97.6152,
        "meta_ra_of_asc_node": 178.1269,
        "meta_arg_of_pericenter": 37.6305,
        "meta_mean_anomaly": 322.5162,
        "meta_ephemeris_type": 0,
        "meta_classification_type": "U",
        "meta_norad_cat_id": 39227,
        "meta_element_set_no": 999,
        "meta_rev_at_epoch": 67690,
        "meta_bstar": 0.0001712888,
        "meta_mean_motion_dot": 2.34e-05,
        "meta_mean_motion_ddot": 0,
        "tle_line1": "1 39227U 13042A   25353.92607190  .00002340  00000+0  17129-3 0  9996",
        "tle_line2": "2 39227  97.6152 178.1269 0003453  37.6305 322.5162 15.04538009676902"
      },
      "geometry": {
        "type": "Point",
        "coordinates": [
          -17.635085093356167,
          -64.20256916877747
        ]
      }
    },
    {
      "type": "Feature",
      "properties": {
        "norad_id": 39418,
        "name": "SKYSAT-A",
        "group": "resource",
        "lat": 82.57243108115239,
        "lon": -42.412672272788654,
        "alt_km": 530.9709781106467,
        "timestamp": "2025-12-20T05:41:49.675234+00:00",
        "meta_object_name": "SKYSAT-A",
        "meta_object_id": "2013-066C",
        "meta_epoch": "2025-12-19T21:21:27.283968",
        "meta_mean_motion": 15.11652126,
        "meta_eccentricity": 0.00212405,
        "meta_inclination": 97.4098,
        "meta_ra_of_asc_node": 43.8813,
        "meta_arg_of_pericenter": 210.6261,
        "meta_mean_anomaly": 149.3731,
        "meta_ephemeris_type": 0,
        "meta_classification_type": "U",
        "meta_norad_cat_id": 39418,
        "meta_element_set_no": 999,
        "meta_rev_at_epoch": 66138,
        "meta_bstar": 0.00017646303,
        "meta_mean_motion_dot": 2.952e-05,
        "meta_mean_motion_ddot": 0,
        "tle_line1": "1 39418U 13066C   25353.88989912  .00002952  00000+0  17646-3 0  9997",
        "tle_line2": "2 39418  97.4098  43.8813 0021240 210.6261 149.3731 15.11652126661380"
      },
      "geometry": {
        "type": "Point",
        "coordinates": [
          -42.412672272788654,
          82.57243108115239
        ]
      }
    },
    {
      "type": "Feature",
      "properties": {
        "norad_id": 39419,
        "name": "DUBAISAT-2",
        "group": "resource",
        "lat": 34.965295865294266,
        "lon": 169.65971084648726,
        "alt_km": 544.5953347102695,
        "timestamp": "2025-12-20T05:41:49.675245+00:00",
        "meta_object_name": "DUBAISAT-2",
        "meta_object_id": "2013-066D",
        "meta_epoch": "2025-12-19T22:41:21.022080",
        "meta_mean_motion": 15.08420151,
        "meta_eccentricity": 0.00099502,
        "meta_inclination": 97.4442,
        "meta_ra_of_asc_node": 344.1305,
        "meta_arg_of_pericenter": 293.5024,
        "meta_mean_anomaly": 66.5159,
        "meta_ephemeris_type": 0,
        "meta_classification_type": "U",
        "meta_norad_cat_id": 39419,
        "meta_element_set_no": 999,
        "meta_rev_at_epoch": 65935,
        "meta_bstar": 0.00021921309,
        "meta_mean_motion_dot": 3.353e-05,
        "meta_mean_motion_ddot": 0,
        "tle_line1": "1 39419U 13066D   25353.94538220  .00003353  00000+0  21921-3 0  9994",
        "tle_line2": "2 39419  97.4442 344.1305 0009950 293.5024  66.5159 15.08420151659353"
      },
      "geometry": {
        "type": "Point",
        "coordinates": [
          169.65971084648726,
          34.965295865294266
        ]
      }
    },
    {
      "type": "Feature",
      "properties": {
        "norad_id": 39574,
        "name": "GPM-CORE",
        "group": "resource",
        "lat": -16.391087692835246,
        "lon": 15.473911884386645,
        "alt_km": 432.41725105557816,
        "timestamp": "2025-12-20T05:41:49.675255+00:00",
        "meta_object_name": "GPM-CORE",
        "meta_object_id": "2014-009C",
        "meta_epoch": "2025-12-19T22:37:34.371552",
        "meta_mean_motion": 15.44568665,
        "meta_eccentricity": 0.00094175,
        "meta_inclination": 64.9719,
        "meta_ra_of_asc_node": 188.5606,
        "meta_arg_of_pericenter": 247.9507,
        "meta_mean_anomaly": 112.0633,
        "meta_ephemeris_type": 0,
        "meta_classification_type": "U",
        "meta_norad_cat_id": 39574,
        "meta_element_set_no": 999,
        "meta_rev_at_epoch": 67012,
        "meta_bstar": 0.00012609601,
        "meta_mean_motion_dot": 5.645e-05,
        "meta_mean_motion_ddot": 0,
        "tle_line1": "1 39574U 14009C   25353.94275893  .00005645  00000+0  12610-3 0  9999",
        "tle_line2": "2 39574  64.9719 188.5606 0009417 247.9507 112.0633 15.44568665670127"
      },
      "geometry": {
        "type": "Point",
        "coordinates": [
          15.473911884386645,
          -16.391087692835246
        ]
      }
    },
    {
      "type": "Feature",
      "properties": {
        "norad_id": 39634,
        "name": "SENTINEL-1A",
        "group": "resource",
        "lat": -65.36614126051134,
        "lon": 161.08765582772986,
        "alt_km": 703.8165017867968,
        "timestamp": "2025-12-20T05:41:49.675266+00:00",
        "meta_object_name": "SENTINEL-1A",
        "meta_object_id": "2014-016A",
        "meta_epoch": "2025-12-19T23:37:59.408832",
        "meta_mean_motion": 14.59201682,
        "meta_eccentricity": 0.00012543,
        "meta_inclination": 98.1796,
        "meta_ra_of_asc_node": 359.1193,
        "meta_arg_of_pericenter": 85.4707,
        "meta_mean_anomaly": 274.6636,
        "meta_ephemeris_type": 0,
        "meta_classification_type": "U",
        "meta_norad_cat_id": 39634,
        "meta_element_set_no": 999,
        "meta_rev_at_epoch": 62388,
        "meta_bstar": 9.698889e-06,
        "meta_mean_motion_dot": 0,
        "meta_mean_motion_ddot": 0,
        "tle_line1": "1 39634U 14016A   25353.98471538  .00000000  00000+0  96989-5 0  9995",
        "tle_line2": "2 39634  98.1796 359.1193 0001254  85.4707 274.6636 14.59201682623880"
      },
      "geometry": {
        "type": "Point",
        "coordinates": [
          161.08765582772986,
          -65.36614126051134
        ]
      }
    },
    {
      "type": "Feature",
      "properties": {
        "norad_id": 39731,
        "name": "KAZEOSAT 1",
        "group": "resource",
        "lat": 59.52434794680834,
        "lon": -99.58251894442162,
        "alt_km": 745.1388566394417,
        "timestamp": "2025-12-20T05:41:49.675276+00:00",
        "meta_object_name": "KAZEOSAT 1",
        "meta_object_id": "2014-024A",
        "meta_epoch": "2025-12-19T22:29:04.724736",
        "meta_mean_motion": 14.42065826,
        "meta_eccentricity": 0.00011661,
        "meta_inclination": 98.3433,
        "meta_ra_of_asc_node": 65.6831,
        "meta_arg_of_pericenter": 96.3703,
        "meta_mean_anomaly": 263.762,
        "meta_ephemeris_type": 0,
        "meta_classification_type": "U",
        "meta_norad_cat_id": 39731,
        "meta_element_set_no": 999,
        "meta_rev_at_epoch": 61272,
        "meta_bstar": 2.1723045e-05,
        "meta_mean_motion_dot": 2.8e-07,
        "meta_mean_motion_ddot": 0,
        "tle_line1": "1 39731U 14024A   25353.93686024  .00000028  00000+0  21723-4 0  9998",
        "tle_line2": "2 39731  98.3433  65.6831 0001166  96.3703 263.7620 14.42065826612728"
      },
      "geometry": {
        "type": "Point",
        "coordinates": [
          -99.58251894442162,
          59.52434794680834
        ]
      }
    },
    {
      "type": "Feature",
      "properties": {
        "norad_id": 39766,
        "name": "ALOS-2",
        "group": "resource",
        "lat": -67.31185014428127,
        "lon": 108.43558226976701,
        "alt_km": 639.2460621706059,
        "timestamp": "2025-12-20T05:41:49.675286+00:00",
        "meta_object_name": "ALOS-2",
        "meta_object_id": "2014-029A",
        "meta_epoch": "2025-12-19T21:53:28.319712",
        "meta_mean_motion": 14.79468452,
        "meta_eccentricity": 0.00014561,
        "meta_inclination": 97.9232,
        "meta_ra_of_asc_node": 88.6565,
        "meta_arg_of_pericenter": 98.5247,
        "meta_mean_anomaly": 261.613,
        "meta_ephemeris_type": 0,
        "meta_classification_type": "U",
        "meta_norad_cat_id": 39766,
        "meta_element_set_no": 999,
        "meta_rev_at_epoch": 62507,
        "meta_bstar": 0.00018916434,
        "meta_mean_motion_dot": 1.361e-05,
        "meta_mean_motion_ddot": 0,
        "tle_line1": "1 39766U 14029A   25353.91213333  .00001361  00000+0  18916-3 0  9998",
        "tle_line2": "2 39766  97.9232  88.6565 0001456  98.5247 261.6130 14.79468452625073"
      },
      "geometry": {
        "type": "Point",
        "coordinates": [
          108.43558226976701,
          -67.31185014428127
        ]
      }
    }
  ]
}